GLOBALSTAR M075         
1 37192U 10054E   24139.42168882 -.00000068  00000+0  20041-3 0  9994
2 37192  51.9953 303.5106 0000906 109.1037 267.8658 12.62274305626154
GLOBALSTAR M073         
1 37193U 10054F   24139.60984094 -.00000076  00000+0  15301-3 0  9998
2 37193  52.0050 216.4573 0000455 154.8697 356.5738 12.62265384628001
GLOBALSTAR M083         
1 37739U 11033A   24139.35485900 -.00000092  00000+0  63493-4 0  9990
2 37739  51.9833 166.5025 0000347  88.6589 284.8228 12.62270088596991
GLOBALSTAR M088         
1 37740U 11033B   24139.52225370 -.00000097  00000+0  38230-4 0  9990
2 37740  51.9744  71.8130 0000741  68.8587 106.0940 12.62268188592557
GLOBALSTAR M091         
1 37741U 11033C   24139.21906279 -.00000079  00000+0  13647-3 0  9995
2 37741  52.0021  35.5877 0001056  76.8375  98.7869 12.62262733593308
GLOBALSTAR M085         
1 37742U 11033D   24139.28408056 -.00000079  00000+0  13605-3 0  9997
2 37742  51.9886 346.7782 0001125  92.3054  79.6196 12.62271043593824
GLOBALSTAR M081         
1 37743U 11033E   24139.51187653 -.00000062  00000+0  23054-3 0  9992
2 37743  51.9975 348.6288 0001091 102.8071 264.2583 12.62264901594002
GLOBALSTAR M089         
1 37744U 11033F   24139.19194661 -.00000077  00000+0  15136-3 0  9992
2 37744  51.9935 303.9067 0000648 133.6188  37.6526 12.62263784594801
